[{"OBJECT_NAME":"STARLINK-5897","OBJECT_ID":"2023-037T","EPOCH":"2026-03-09T23:17:46.995648","MEAN_MOTION":14.98333859,"ECCENTRICITY":0.00032886,"INCLINATION":69.9985,"RA_OF_ASC_NODE":303.5706,"ARG_OF_PERICENTER":272.7263,"MEAN_ANOMALY":87.352,"EPHEMERIS_TYPE":0,"CLASSIFICATION_TYPE":"U","NORAD_CAT_ID":55931,"ELEMENT_SET_NO":999,"REV_AT_EPOCH":16353,"BSTAR":5.1350876e-5,"MEAN_MOTION_DOT":5.2e-6,"MEAN_MOTION_DDOT":0},{"OBJECT_NAME":"KUIPER-00050","OBJECT_ID":"2025-134L","EPOCH":"2026-03-09T16:37:17.406912","MEAN_MOTION":14.97208204,"ECCENTRICITY":0.00043267,"INCLINATION":51.8888,"RA_OF_ASC_NODE":211.9413,"ARG_OF_PERICENTER":323.7107,"MEAN_ANOMALY":36.3569,"EPHEMERIS_TYPE":0,"CLASSIFICATION_TYPE":"U","NORAD_CAT_ID":64510,"ELEMENT_SET_NO":999,"REV_AT_EPOCH":4037,"BSTAR":0.00054272515,"MEAN_MOTION_DOT":6.094e-5,"MEAN_MOTION_DDOT":0}]
